NORAD_CAT_ID,OBJECT_NAME,OBJECT_TYPE,EPOCH,MEAN_MOTION,ECCENTRICITY,INCLINATION,RA_OF_ASC_NODE,ARG_OF_PERICENTER,MEAN_ANOMALY,BSTAR,MEAN_MOTION_DOT,MEAN_MOTION_DDOT,TLE_LINE0,TLE_LINE1,TLE_LINE2,SEMIMAJOR_AXIS,PERIOD,APOGEE,PERIGEE,DECAYED
49408.0,STARLINK-3151,PAYLOAD,2024-08-01 17:55:24,15.0885728,0.0001967,53.2179,335.0588,96.2042,263.9174,0.00048036,7.369e-05,0.0,0 STARLINK-3151,1 49408U 21104A   24214.74680805  .00007369  00000-0  48036-3 0  9993,2 49408  53.2179 335.0588 0001967  96.2042 263.9174 15.08857280150329,6917.828,95.436,541.053,538.332,0.0
49408.0,STARLINK-3151,PAYLOAD,2024-08-02 13:00:01,15.08855847,0.0001936,53.2175,331.4884,106.6817,253.4387,0.00028306,4.222e-05,0.0,0 STARLINK-3151,1 49408U 21104A   24215.54168232  .00004222  00000-0  28306-3 0  9990,2 49408  53.2175 331.4884 0001936 106.6817 253.4387 15.08855847151548,6917.832,95.437,541.036,538.358,0.0
49408.0,STARLINK-3151,PAYLOAD,2024-08-02 14:35:24,15.08859006,0.0001711,53.2162,331.1907,84.8324,275.2864,0.00034414,5.196e-05,0.0,0 STARLINK-3151,1 49408U 21104A   24215.60792210  .00005196  00000-0  34414-3 0  9994,2 49408  53.2162 331.1907 0001711  84.8324 275.2864 15.08859006150450,6917.822,95.436,540.871,538.504,0.0
49408.0,STARLINK-3151,PAYLOAD,2024-08-03 12:50:49,15.08829649,0.0001533,53.2179,327.028,94.3277,265.789,-0.00013142,-2.378e-05,0.0,0 STARLINK-3151,1 49408U 21104A   24216.53529532 -.00002378  00000-0 -13142-3 0  9998,2 49408  53.2179 327.0280 0001533  94.3277 265.7890 15.08829649151691,6917.912,95.438,540.838,538.717,0.0
49408.0,STARLINK-3151,PAYLOAD,2024-08-03 14:26:12,15.08835884,0.0001355,53.2173,326.7308,89.6429,270.4719,1.7498e-05,-9e-08,0.0,0 STARLINK-3151,1 49408U 21104A   24216.60153423 -.00000009  00000-0  17498-4 0  9995,2 49408  53.2173 326.7308 0001355  89.6429 270.4719 15.08835884150601,6917.893,95.438,540.695,538.821,0.0
49408.0,STARLINK-3151,PAYLOAD,2024-08-04 12:41:36,15.08846682,0.0001461,53.2183,322.5743,97.6417,262.4741,0.00031494,4.729e-05,0.0,0 STARLINK-3151,1 49408U 21104A   24217.52889487  .00004729  00000-0  31494-3 0  9996,2 49408  53.2183 322.5743 0001461  97.6417 262.4741 15.08846682151844,6917.86,95.437,540.736,538.714,0.0
49408.0,STARLINK-3151,PAYLOAD,2024-08-04 14:16:59,15.08850828,0.0001552,53.2188,322.28,108.9296,251.1864,0.00055328,8.531e-05,0.0,0 STARLINK-3151,1 49408U 21104A   24217.59513488  .00008531  00000-0  55328-3 0  9995,2 49408  53.2188 322.2800 0001552 108.9296 251.1864 15.08850828150759,6917.847,95.437,540.786,538.639,0.0
49408.0,STARLINK-3151,PAYLOAD,2024-08-04 15:52:22,15.08861077,0.0001468,53.219,321.9794,94.4799,265.6361,0.0010456,0.00016401,0.0,0 STARLINK-3151,1 49408U 21104A   24217.66137439  .00016401  00000-0  10456-2 0  9998,2 49408  53.2190 321.9794 0001468  94.4799 265.6361 15.08861077150764,6917.816,95.436,540.697,538.665,0.0
49408.0,STARLINK-3151,PAYLOAD,2024-08-05 12:32:23,15.08848348,0.0001916,53.2177,318.1131,90.9635,269.1577,0.00025075,3.706e-05,0.0,0 STARLINK-3151,1 49408U 21104A   24218.52249540  .00003706  00000-0  25075-3 0  9999,2 49408  53.2177 318.1131 0001916  90.9635 269.1577 15.08848348151990,6917.855,95.437,541.045,538.394,0.0
49408.0,STARLINK-3151,PAYLOAD,2024-08-05 14:07:46,15.0884968,0.0001931,53.2174,317.8138,87.5274,272.5939,0.00028297,4.219e-05,0.0,0 STARLINK-3151,1 49408U 21104A   24218.58873473  .00004219  00000-0  28297-3 0  9992,2 49408  53.2174 317.8138 0001931  87.5274 272.5939 15.08849680150908,6917.851,95.437,541.052,538.38,0.0
49408.0,STARLINK-3151,PAYLOAD,2024-08-06 12:23:11,15.0882891,0.0001612,53.2176,313.6531,79.9782,280.1392,-8.1733e-05,-1.588e-05,0.0,0 STARLINK-3151,1 49408U 21104A   24219.51610066 -.00001588  00000-0 -81733-4 0  9996,2 49408  53.2176 313.6531 0001612  79.9782 280.1392 15.08828910152145,6917.914,95.438,540.894,538.664,0.0
49408.0,STARLINK-3151,PAYLOAD,2024-08-06 13:58:34,15.08832342,0.0001584,53.2173,313.3556,79.3834,280.7336,7.1357e-05,8.48e-06,0.0,0 STARLINK-3151,1 49408U 21104A   24219.58234047  .00000848  00000-0  71357-4 0  9991,2 49408  53.2173 313.3556 0001584  79.3834 280.7336 15.08832342151053,6917.904,95.438,540.865,538.673,0.0
49408.0,STARLINK-3151,PAYLOAD,2024-08-07 12:13:58,15.0885136,0.0001695,53.2164,309.1933,73.891,286.2269,0.00094014,0.00014711,0.0,0 STARLINK-3151,1 49408U 21104A   24220.50970258  .00014711  00000-0  94014-3 0  9994,2 49408  53.2164 309.1933 0001695  73.8910 286.2269 15.08851360152296,6917.846,95.437,540.883,538.538,0.0
49408.0,STARLINK-3151,PAYLOAD,2024-08-08 12:04:45,15.08855036,0.0001786,53.2166,304.7324,71.7976,288.321,0.00061272,9.481e-05,0.0,0 STARLINK-3151,1 49408U 21104A   24221.50329974  .00009481  00000-0  61272-3 0  9996,2 49408  53.2166 304.7324 0001786  71.7976 288.3210 15.08855036151341,6917.834,95.437,540.935,538.464,0.0
49408.0,STARLINK-3151,PAYLOAD,2024-08-09 05:33:59,15.08846002,0.0001703,53.2163,301.465,81.9916,278.1269,0.00035643,5.39e-05,0.0,0 STARLINK-3151,1 49408U 21104A   24222.23194056  .00005390  00000-0  35643-3 0  9996,2 49408  53.2163 301.4650 0001703  81.9916 278.1269 15.08846002152558,6917.862,95.437,540.905,538.549,0.0
49408.0,STARLINK-3151,PAYLOAD,2024-08-09 11:55:32,15.08846669,0.0001503,53.2163,300.2693,95.2864,264.8299,0.00021643,3.159e-05,0.0,0 STARLINK-3151,1 49408U 21104A   24222.49689818  .00003159  00000-0  21643-3 0  9995,2 49408  53.2163 300.2693 0001503  95.2864 264.8299 15.08846669151496,6917.86,95.437,540.765,538.685,0.0
49408.0,STARLINK-3151,PAYLOAD,2024-08-10 05:24:46,15.08841979,0.000152,53.2171,296.9984,96.6256,263.4909,0.00017144,2.442e-05,0.0,0 STARLINK-3151,1 49408U 21104A   24223.22554063  .00002442  00000-0  17144-3 0  9995,2 49408  53.2171 296.9984 0001520  96.6256 263.4909 15.08841979152705,6917.874,95.437,540.791,538.688,0.0
49408.0,STARLINK-3151,PAYLOAD,2024-08-10 11:46:19,15.08850478,0.0001615,53.2168,295.8107,94.3039,265.8137,0.00060246,9.316e-05,0.0,0 STARLINK-3151,1 49408U 21104A   24223.49049998  .00009316  00000-0  60246-3 0  9998,2 49408  53.2168 295.8107 0001615  94.3039 265.8137 15.08850478151640,6917.848,95.437,540.831,538.596,0.0
49408.0,STARLINK-3151,PAYLOAD,2024-08-10 14:57:05,15.08856304,0.000149,53.2165,295.2125,96.1809,263.9353,0.00086468,0.00013506,0.0,0 STARLINK-3151,1 49408U 21104A   24223.62297823  .00013506  00000-0  86468-3 0  9995,2 49408  53.2165 295.2125 0001490  96.1809 263.9353 15.08856304152764,6917.831,95.437,540.726,538.665,0.0
49408.0,STARLINK-3151,PAYLOAD,2024-08-10 21:18:38,15.08850982,0.0001943,53.2166,294.0197,64.9954,295.124,0.00052488,8.078e-05,0.0,0 STARLINK-3151,1 49408U 21104A   24223.88794143  .00008078  00000-0  52488-3 0  9993,2 49408  53.2166 294.0197 0001943  64.9954 295.1240 15.08850982152801,6917.847,95.437,541.056,538.368,0.0
49408.0,STARLINK-3151,PAYLOAD,2024-08-11 21:09:25,15.08834214,0.0001948,53.2155,289.5626,88.4012,271.7204,3.2675e-05,2.32e-06,0.0,0 STARLINK-3151,1 49408U 21104A   24224.88154270  .00000232  00000-0  32675-4 0  9996,2 49408  53.2155 289.5626 0001948  88.4012 271.7204 15.08834214152952,6917.898,95.438,541.111,538.415,0.0
49408.0,STARLINK-3151,PAYLOAD,2024-08-12 05:06:21,15.08819208,0.000142,53.215,288.0759,96.1696,263.9458,-0.00041604,-6.899e-05,0.0,0 STARLINK-3151,1 49408U 21104A   24225.21274641 -.00006899  00000-0 -41604-3 0  9997,2 49408  53.2150 288.0759 0001420  96.1696 263.9458 15.08819208153004,6917.944,95.439,540.791,538.827,0.0
49408.0,STARLINK-3151,PAYLOAD,2024-08-12 11:27:53,15.08847015,0.0001392,53.2161,286.8906,110.4406,249.6735,0.00049952,7.672e-05,0.0,0 STARLINK-3151,1 49408U 21104A   24225.47770284  .00007672  00000-0  49952-3 0  9991,2 49408  53.2161 286.8906 0001392 110.4406 249.6735 15.08847015153043,6917.859,95.437,540.687,538.761,0.0
49408.0,STARLINK-3151,PAYLOAD,2024-08-13 12:54:05,15.08763016,9.81e-05,53.2152,282.1342,59.7316,300.3773,-0.0015719,-0.00025164,0.0,0 STARLINK-3151,1 49408U 21104A   24226.53756520 -.00025164  00000-0 -15719-2 0  9997,2 49408  53.2152 282.1342 0000981  59.7316 300.3773 15.08763016153207,6918.116,95.442,540.659,539.302,0.0
49408.0,STARLINK-3151,PAYLOAD,2024-08-13 20:51:02,15.08791701,8.74e-05,53.2143,280.6459,99.6859,260.4232,-9.9402e-05,-1.867e-05,0.0,0 STARLINK-3151,1 49408U 21104A   24226.86877800 -.00001867  00000-0 -99402-4 0  9995,2 49408  53.2143 280.6459 0000874  99.6859 260.4232 15.08791701153258,6918.028,95.441,540.498,539.288,0.0
49408.0,STARLINK-3151,PAYLOAD,2024-08-14 03:12:34,15.08796023,0.0001251,53.2162,279.4545,255.779,104.3063,0.00046227,7.068e-05,0.0,0 STARLINK-3151,1 49408U 21104A   24227.13373797  .00007068  00000-0  46227-3 0  9995,2 49408  53.2162 279.4545 0001251 255.7790 104.3063 15.08796023153294,6918.015,95.44,540.745,539.014,0.0
49408.0,STARLINK-3151,PAYLOAD,2024-08-14 11:09:30,15.08842459,8.75e-05,53.2156,277.9674,89.5135,270.5957,0.001822,0.0002883,0.0,0 STARLINK-3151,1 49408U 21104A   24227.46493996  .00028830  00000-0  18220-2 0  9996,2 49408  53.2156 277.9674 0000875  89.5135 270.5957 15.08842459153349,6917.873,95.437,540.343,539.133,0.0
49408.0,STARLINK-3151,PAYLOAD,2024-08-14 20:41:48,15.08868662,8.34e-05,53.2159,276.1844,90.8996,269.2092,0.0012924,0.00020357,0.0,0 STARLINK-3151,1 49408U 21104A   24227.86237102  .00020357  00000-0  12924-2 0  9996,2 49408  53.2159 276.1844 0000834  90.8996 269.2092 15.08868662152301,6917.793,95.436,540.235,539.081,0.0
49408.0,STARLINK-3151,PAYLOAD,2024-08-15 09:24:52,15.08903867,8.57e-05,53.2155,273.8052,79.6984,280.4105,0.0013248,0.00020896,0.0,0 STARLINK-3151,1 49408U 21104A   24228.39226998  .00020896  00000-0  13248-2 0  9994,2 49408  53.2155 273.8052 0000857  79.6984 280.4105 15.08903867152384,6917.685,95.434,540.143,538.957,0.0
49408.0,STARLINK-3151,PAYLOAD,2024-08-15 20:32:33,15.08881325,0.0001104,53.2161,271.7228,90.9465,269.1654,0.00076066,0.00011852,0.0,0 STARLINK-3151,1 49408U 21104A   24228.85594227  .00011852  00000-0  76066-3 0  9998,2 49408  53.2161 271.7228 0001104  90.9465 269.1654 15.08881325153556,6917.754,95.435,540.383,538.855,0.0
